STARLINK-1507
1 15748C 20038U   21326.15559048  .00005005  00000-0  33545-3 0  3269
2 15748  53.0529  78.0766 0001236  85.8541 215.8666 15.06383704    13
